NORAD_CAT_ID,OBJECT_NAME,OBJECT_TYPE,EPOCH,MEAN_MOTION,ECCENTRICITY,INCLINATION,RA_OF_ASC_NODE,ARG_OF_PERICENTER,MEAN_ANOMALY,BSTAR,MEAN_MOTION_DOT,MEAN_MOTION_DDOT,TLE_LINE0,TLE_LINE1,TLE_LINE2,SEMIMAJOR_AXIS,PERIOD,APOGEE,PERIGEE,DECAYED
53930.0,STARLINK-5010,PAYLOAD,2023-05-08 03:08:10,15.08836361,7.92e-05,53.216,277.1565,98.491,261.6172,0.00010858,1.441e-05,0.0,0 STARLINK-5010,1 53930U 22119AW  23128.13068218  .00001441  00000-0  10858-3 0  9995,2 53930  53.2160 277.1565 0000792  98.4910 261.6172 15.08836361 35061,6917.892,95.438,540.304,539.209,0.0
53930.0,STARLINK-5010,PAYLOAD,2023-05-08 09:29:43,15.08849318,8.99e-05,53.2168,275.9691,95.3027,264.8067,0.00023073,3.387e-05,0.0,0 STARLINK-5010,1 53930U 22119AW  23128.39563693  .00003387  00000-0  23073-3 0  9994,2 53930  53.2168 275.9691 0000899  95.3027 264.8067 15.08849318 35107,6917.852,95.437,540.339,539.095,0.0
53930.0,STARLINK-5010,PAYLOAD,2023-05-08 17:26:38,15.08857637,6.91e-05,53.2165,274.4826,94.7771,265.33,0.00056382,8.701e-05,0.0,0 STARLINK-5010,1 53930U 22119AW  23128.72683445  .00008701  00000-0  56382-3 0  9993,2 53930  53.2165 274.4826 0000691  94.7771 265.3300 15.08857637 35577,6917.826,95.436,540.17,539.213,0.0
53930.0,STARLINK-5010,PAYLOAD,2023-05-09 14:06:39,15.08857027,8.17e-05,53.217,270.6157,74.0108,286.0974,0.0004888,7.504e-05,0.0,0 STARLINK-5010,1 53930U 22119AW  23129.58795364  .00007504  00000-0  48880-3 0  9996,2 53930  53.2170 270.6157 0000817  74.0108 286.0974 15.08857027 35708,6917.828,95.436,540.259,539.128,0.0
53930.0,STARLINK-5010,PAYLOAD,2023-05-10 12:22:02,15.08844447,9.08e-05,53.2169,266.4502,119.0695,241.0388,-1.8594e-05,-5.84e-06,0.0,0 STARLINK-5010,1 53930U 22119AW  23130.51531048 -.00000584  00000-0 -18594-4 0  9991,2 53930  53.2169 266.4502 0000908 119.0695 241.0388 15.08844447 35842,6917.867,95.437,540.36,539.104,0.0
53930.0,STARLINK-5010,PAYLOAD,2023-05-10 15:32:49,15.08844071,0.0001094,53.2179,265.853,143.2329,216.8739,-3.6616e-06,-3.46e-06,0.0,0 STARLINK-5010,1 53930U 22119AW  23130.64779019 -.00000346  00000-0 -36616-5 0  9999,2 53930  53.2179 265.8530 0001094 143.2329 216.8739 15.08844071 35446,6917.868,95.437,540.49,538.976,0.0
53930.0,STARLINK-5010,PAYLOAD,2023-05-11 15:23:36,15.0884654,6.4e-05,53.2163,261.3956,98.4762,261.6303,0.00017064,2.43e-05,0.0,0 STARLINK-5010,1 53930U 22119AW  23131.64139215  .00002430  00000-0  17064-3 0  9996,2 53930  53.2163 261.3956 0000640  98.4762 261.6303 15.08846540 36012,6917.86,95.437,540.168,539.283,0.0
53930.0,STARLINK-5010,PAYLOAD,2023-05-12 15:14:23,15.08839606,7.89e-05,53.2161,256.9334,59.9186,300.1885,8.9244e-05,1.133e-05,0.0,0 STARLINK-5010,1 53930U 22119AW  23132.63499761  .00001133  00000-0  89244-4 0  9990,2 53930  53.2161 256.9334 0000789  59.9186 300.1885 15.08839606 35744,6917.882,95.438,540.292,539.201,0.0
53930.0,STARLINK-5010,PAYLOAD,2023-05-13 11:54:25,15.088291,6.53e-05,53.2161,253.0709,67.1158,292.9903,-5.451e-05,-1.155e-05,0.0,0 STARLINK-5010,1 53930U 22119AW  23133.49612427 -.00001155  00000-0 -54510-4 0  9995,2 53930  53.2161 253.0709 0000653  67.1158 292.9903 15.08829100 35879,6917.914,95.438,540.23,539.327,0.0
53930.0,STARLINK-5010,PAYLOAD,2023-05-13 13:29:47,15.08835129,7.2e-05,53.2157,252.7696,110.2652,249.8418,9.57e-06,-1.35e-06,0.0,0 STARLINK-5010,1 53930U 22119AW  23133.56236050 -.00000135  00000-0  95700-5 0  9990,2 53930  53.2157 252.7696 0000720 110.2652 249.8418 15.08835129 36308,6917.895,95.438,540.258,539.262,0.0
53930.0,STARLINK-5010,PAYLOAD,2023-05-14 13:20:35,15.08840551,4.86e-05,53.215,248.3147,80.702,279.4027,1.7699e-05,-6e-08,0.0,0 STARLINK-5010,1 53930U 22119AW  23134.55596230 -.00000006  00000-0  17699-4 0  9996,2 53930  53.2150 248.3147 0000486  80.7020 279.4027 15.08840551 36458,6917.879,95.438,540.08,539.407,0.0
53930.0,STARLINK-5010,PAYLOAD,2023-05-14 16:31:22,15.08816848,9.07e-05,53.2157,247.7153,111.2319,248.8771,0.00094279,0.00014739,0.0,0 STARLINK-5010,1 53930U 22119AW  23134.68845562  .00014739  00000-0  94279-3 0  9990,2 53930  53.2157 247.7153 0000907 111.2319 248.8771 15.08816848 36058,6917.951,95.439,540.444,539.189,0.0
53930.0,STARLINK-5010,PAYLOAD,2023-05-15 00:28:17,15.0883863,0.0001064,53.2168,246.2295,61.739,298.371,6.4032e-05,7.31e-06,0.0,0 STARLINK-5010,1 53930U 22119AW  23135.01964529  .00000731  00000-0  64032-4 0  9995,2 53930  53.2168 246.2295 0001064  61.7390 298.3710 15.08838630 36106,6917.885,95.438,540.486,539.014,0.0
53930.0,STARLINK-5010,PAYLOAD,2023-05-15 11:35:59,15.08837695,6.73e-05,53.2156,244.1501,66.1468,293.9595,0.0001659,2.353e-05,0.0,0 STARLINK-5010,1 53930U 22119AW  23135.48332633  .00002353  00000-0  16590-3 0  9998,2 53930  53.2156 244.1501 0000673  66.1468 293.9595 15.08837695 36595,6917.887,95.438,540.218,539.287,0.0
53930.0,STARLINK-5010,PAYLOAD,2023-05-15 14:46:45,15.08843384,7.61e-05,53.2159,243.5541,64.7073,295.3998,0.00016593,2.354e-05,0.0,0 STARLINK-5010,1 53930U 22119AW  23135.61580349  .00002354  00000-0  16593-3 0  9996,2 53930  53.2159 243.5541 0000761  64.7073 295.3998 15.08843384 36617,6917.87,95.437,540.261,539.209,0.0
53930.0,STARLINK-5010,PAYLOAD,2023-05-16 13:02:09,15.0884252,7e-05,53.2152,239.393,57.3115,302.7945,2.0631e-05,4.1e-07,0.0,0 STARLINK-5010,1 53930U 22119AW  23136.54316405  .00000041  00000-0  20631-4 0  9999,2 53930  53.2152 239.3930 0000700  57.3115 302.7945 15.08842520 36338,6917.873,95.437,540.222,539.253,0.0
53930.0,STARLINK-5010,PAYLOAD,2023-05-17 11:17:33,15.08833063,5.99e-05,53.2158,235.2298,73.8274,286.2784,0.00019756,2.857e-05,0.0,0 STARLINK-5010,1 53930U 22119AW  23137.47052730  .00002857  00000-0  19756-3 0  9992,2 53930  53.2158 235.2298 0000599  73.8274 286.2784 15.08833063 36475,6917.902,95.438,540.181,539.352,0.0
53930.0,STARLINK-5010,PAYLOAD,2023-05-17 12:52:56,15.08844111,6.25e-05,53.2157,234.9324,74.6683,285.4378,4.4141e-05,4.15e-06,0.0,0 STARLINK-5010,1 53930U 22119AW  23137.53676274  .00000415  00000-0  44141-4 0  9999,2 53930  53.2157 234.9324 0000625  74.6683 285.4378 15.08844111 36480,6917.868,95.437,540.165,539.3,0.0
53930.0,STARLINK-5010,PAYLOAD,2023-05-18 11:08:20,15.08836208,6.54e-05,53.2159,230.7685,82.3827,277.7239,8.7797e-06,-1.48e-06,0.0,0 STARLINK-5010,1 53930U 22119AW  23138.46412743 -.00000148  00000-0  87797-5 0  9990,2 53930  53.2159 230.7685 0000654  82.3827 277.7239 15.08836208 36628,6917.892,95.438,540.209,539.305,0.0
53930.0,STARLINK-5010,PAYLOAD,2023-05-18 12:43:43,15.08837785,6.76e-05,53.2158,230.4709,83.2397,276.8672,1.8757e-05,1.1e-07,0.0,0 STARLINK-5010,1 53930U 22119AW  23138.53036616  .00000011  00000-0  18757-4 0  9996,2 53930  53.2158 230.4709 0000676  83.2397 276.8672 15.08837785 37057,6917.887,95.438,540.22,539.285,0.0
53930.0,STARLINK-5010,PAYLOAD,2023-05-18 15:54:29,15.08840381,6.75e-05,53.2159,229.8757,88.1088,271.9981,3.3506e-05,2.46e-06,0.0,0 STARLINK-5010,1 53930U 22119AW  23138.66284378  .00000246  00000-0  33506-4 0  9999,2 53930  53.2159 229.8757 0000675  88.1088 271.9981 15.08840381 37070,6917.879,95.438,540.211,539.277,0.0
53930.0,STARLINK-5010,PAYLOAD,2023-05-19 10:59:07,15.08840719,7.2e-05,53.216,226.3065,94.393,265.7144,2.8822e-05,1.71e-06,0.0,0 STARLINK-5010,1 53930U 22119AW  23139.45772387  .00000171  00000-0  28822-4 0  9991,2 53930  53.2160 226.3065 0000720  94.3930 265.7144 15.08840719 37192,6917.878,95.438,540.241,539.245,0.0
53930.0,STARLINK-5010,PAYLOAD,2023-05-20 12:25:16,15.08849389,7.23e-05,53.2164,221.5497,76.104,284.0033,0.00012649,1.727e-05,0.0,0 STARLINK-5010,1 53930U 22119AW  23140.51755661  .00001727  00000-0  12649-3 0  9993,2 53930  53.2164 221.5497 0000723  76.1040 284.0033 15.08849389 36939,6917.852,95.437,540.217,539.217,0.0
53930.0,STARLINK-5010,PAYLOAD,2023-05-20 21:57:35,15.08842326,7.43e-05,53.2164,219.7662,101.657,258.4506,0.00012325,1.675e-05,0.0,0 STARLINK-5010,1 53930U 22119AW  23140.91499980  .00001675  00000-0  12325-3 0  9999,2 53930  53.2164 219.7662 0000743 101.6570 258.4506 15.08842326 37414,6917.873,95.437,540.252,539.224,0.0
53930.0,STARLINK-5010,PAYLOAD,2023-05-21 13:51:27,15.08843758,7.59e-05,53.2167,216.7924,86.7723,273.3356,6.5478e-05,7.55e-06,0.0,0 STARLINK-5010,1 53930U 22119AW  23141.57739968  .00000755  00000-0  65478-4 0  9991,2 53930  53.2167 216.7924 0000759  86.7723 273.3356 15.08843758 37515,6917.869,95.437,540.259,539.209,0.0
53930.0,STARLINK-5010,PAYLOAD,2023-05-21 21:48:23,15.08833438,6.44e-05,53.2166,215.3055,88.5237,271.5829,-6.595e-06,-3.93e-06,0.0,0 STARLINK-5010,1 53930U 22119AW  23141.90860833 -.00000393  00000-0 -65950-5 0  9990,2 53930  53.2166 215.3055 0000644  88.5237 271.5829 15.08833438 37561,6917.9,95.438,540.211,539.32,0.0
53930.0,STARLINK-5010,PAYLOAD,2023-05-22 13:42:15,15.08834145,9.22e-05,53.2165,212.3321,86.882,273.2278,-6.7302e-05,-1.358e-05,0.0,0 STARLINK-5010,1 53930U 22119AW  23142.57101318 -.00001358  00000-0 -67302-4 0  9994,2 53930  53.2165 212.3321 0000922  86.8820 273.2278 15.08834145 37665,6917.898,95.438,540.401,539.125,0.0
53930.0,STARLINK-5010,PAYLOAD,2023-05-22 15:17:38,15.08835313,8.98e-05,53.2165,212.0339,88.1736,271.9359,-6.0595e-05,-1.252e-05,0.0,0 STARLINK-5010,1 53930U 22119AW  23142.63725225 -.00001252  00000-0 -60595-4 0  9990,2 53930  53.2165 212.0339 0000898  88.1736 271.9359 15.08835313 37678,6917.895,95.438,540.381,539.138,0.0
53930.0,STARLINK-5010,PAYLOAD,2023-05-23 10:22:16,15.08839872,8.72e-05,53.2175,208.4652,86.3357,273.7735,-4.4698e-05,-9.99e-06,0.0,0 STARLINK-5010,1 53930U 22119AW  23143.43213246 -.00000999  00000-0 -44698-4 0  9997,2 53930  53.2175 208.4652 0000872  86.3357 273.7735 15.08839872 37376,6917.881,95.438,540.349,539.143,0.0
53930.0,STARLINK-5010,PAYLOAD,2023-05-23 21:29:58,15.08843218,8.9e-05,53.2175,206.3837,89.3755,270.7339,-5.9861e-05,-1.24e-05,0.0,0 STARLINK-5010,1 53930U 22119AW  23143.89581096 -.00001240  00000-0 -59861-4 0  9996,2 53930  53.2175 206.3837 0000890  89.3755 270.7339 15.08843218 37863,6917.871,95.437,540.351,539.12,0.0
